STARLINK-3726           
1 52122U 22029AL  22093.91667824  .00055935  00000+0  40062-3 0  9997
2 52122  53.2177  66.2586 0001262  88.0822  17.1865 15.73181777  3267
STARLINK-3725           
1 52123U 22029AM  22094.16667824 -.00048598  00000+0 -34358-3 0  9996
2 52123  53.2174  65.0169 0000928  70.1307  14.7038 15.73219263  3770
STARLINK-3684           
1 52124U 22029AN  22094.16667824 -.00069900  00000+0 -49753-3 0  9992
2 52124  53.2176  65.0209 0001032  80.7365   2.3631 15.73211807  3774
STARLINK-3727           
1 52125U 22029AP  22093.91667824  .00208046  00000+0  14585-2 0  9993
2 52125  53.2175  66.2507 0000904  87.0269  21.7058 15.73068476  3262
STARLINK-3732           
1 52126U 22029AQ  22094.16667824 -.00056282  00000+0 -39930-3 0  9999
2 52126  53.2176  65.0185 0001057  80.2261   4.0104 15.73199640  3770
STARLINK-3715           
1 52127U 22029AR  22094.16667824 -.00062195  00000+0 -44165-3 0  9996
2 52127  53.2175  65.0129 0001219  78.2843   8.2328 15.73218927  3775
STARLINK-3719           
1 52128U 22029AS  22094.16667824  .00244845  34085-4  66366-3 0  9991
2 52128  53.2151  63.5832 0007052 335.1346  87.7291 15.93778447  3780
STARLINK-3661           
1 52129U 22029AT  22094.16667824 -.00046082  00000+0 -32554-3 0  9994
2 52129  53.2174  65.0108 0000792  66.0224  21.6623 15.73213888  3774
STARLINK-3710           
1 52130U 22029AU  22094.16667824  .00208534  27425-4  60889-3 0  9993
2 52130  53.2161  63.7019 0007877 338.4715  27.1192 15.92399889  3780
STARLINK-3711           
1 52131U 22029AV  22094.16667824 -.00037928  00000+0 -26692-3 0  9992
2 52131  53.2173  65.0092 0000710  71.9797  16.3005 15.73211846  3775
STARLINK-3718           
1 52132U 22029AW  22094.16667824 -.00051455  00000+0 -36420-3 0  9994
2 52132  53.2174  65.0125 0001019  80.6428   6.4163 15.73216534  3779
STARLINK-3707           
1 52133U 22029AX  22094.16667824  .00070191  00000+0  50073-3 0  9991
2 52133  53.2173  65.0068 0001079  78.2817  11.0982 15.73182952  3773
STARLINK-3721           
1 52134U 22029AY  22093.91667824  .00092818  00000+0  66015-3 0  9997
2 52134  53.2176  66.2439 0001004  90.3856  21.7815 15.73140324  3262
STARLINK-3729           
1 52135U 22029AZ  22094.16667824 -.00051201  00000+0 -36257-3 0  9994
2 52135  53.2173  65.0029 0001349  79.1641  11.9580 15.73202508  3769
STARLINK-3720           
1 52136U 22029BA  22094.16667824 -.00038865  00000+0 -27357-3 0  9997
2 52136  53.2174  65.0062 0000955  71.7974  18.1711 15.73218228  3768
STARLINK-3733           
1 52137U 22029BB  22093.91667824  .00096208  00000+0  68455-3 0  9997
2 52137  53.2175  66.2369 0001145  80.5887  34.4690 15.73115479  3262
STARLINK-3723           
1 52138U 22029BC  22094.16667824 -.00128473  00000+0 -92334-3 0  9991
2 52138  53.2174  65.0050 0001141  78.6080  11.9447 15.73242234  3760
STARLINK-3730           
1 52139U 22029BD  22093.91667824  .00256867  00000+0  17870-2 0  9992
2 52139  53.2168  65.8650 0001013  89.4683 206.8555 15.73097477  3239
STARLINK-3682           
1 52140U 22029BE  22094.16667824 -.00105166  00000+0 -75381-3 0  9991
2 52140  53.2174  64.9996 0001213  78.7118  14.3264 15.73215138  3760
FALCON 9 DEB            
1 52141U 22029BF  22094.16579892  .00349528  58347-4  95703-3 0  9991
2 52141  53.2144  63.6903 0008708 319.1710  40.8666 15.93489829  2556
FALCON 9 DEB            
1 52142U 22029BG  22094.16285850  .00331456  53549-4  90166-3 0  9998
2 52142  53.2141  63.6718 0009116 339.4611  20.6051 15.93614739  2551
FALCON 9 DEB            
1 52143U 22029BH  22094.15134337  .00366389  64271-4  92322-3 0  9994
2 52143  53.2136  63.5991 0004608 328.3303  31.7449 15.95089328  2550
FALCON 9 DEB            
1 52144U 22029BJ  22094.14673707  .00417733  81599-4  10048-2 0  9999
2 52144  53.2155  63.5734 0004404 353.9342   6.1634 15.95931773  2550
MERIDIAN 10             
1 52145U 22030A   22092.09616065  .00000933  00000+0  52658-1 0  9993
2 52145  62.7877 320.6993 7235881 269.8290 320.0214  1.98359010   208
FREGAT R/B              
1 52146U 22030B   22092.57946410 -.00001476  00000+0  93336-3 0  9991
2 52146  62.8080 320.5290 7293828 269.6255  14.6283  2.00118978   256
IHI-SAT                 
1 52147U 98067TJ  22094.09015513  .00042972  00000+0  72780-3 0  9990
2 52147  51.6427 343.5132 0003437  32.5873 327.5328 15.51101897  1753
KITSUNE                 
1 52148U 98067TK  22094.11993432  .00032273  00000+0  55913-3 0  9991
2 52148  51.6462 343.3899 0003016  14.7612 136.6797 15.50601688  1691
2022-031A               
1 52150U 22031A   22093.96024768  .00001667  00000+0  17631-3 0  9999
2 52150  97.7937 267.3260 0012454 243.0206 116.9760 14.90496584   826
2022-031B               
1 52151U 22031B   22093.95962561  .00003245  00000+0  33622-3 0  9993
2 52151  97.7820 267.3193 0011272 248.6172 111.3821 14.90673755   827
CZ-6A R/B               
1 52152U 22031C   22093.73410831  .00001742  00000+0  15356-3 0  9992
2 52152  97.7821 267.1285 0028224 350.5384   9.5303 14.97471141   793
2022-032A               
1 52153U 22032A   22093.84540832 -.00001537  00000+0 -15336-3 0  9993
2 52153  97.7957 143.9585 0010768 242.3235 117.4872 14.90056815   706
CZ-11 R/B               
1 52154U 22032B   22094.17524296  .03957855  27016-5  19403-3 0  9992
2 52154  97.6153 144.8112 0255449 301.8844  55.9152 15.90079583   798
2022-032C               
1 52155U 22032C   22094.11076443  .00002185  00000+0  22201-3 0  9995
2 52155  97.8021 144.2267 0014931 273.7289  86.2242 14.91781579   746
2022-032D               
1 52156U 22032D   22094.11071150  .00004676  00000+0  46811-3 0  9996
2 52156  97.7900 144.2205 0014953 274.2561  85.6957 14.91810102   759
2022-034A               
1 52195U 22034A   22094.10858096 -.00000428  00000+0  00000+0 0  9990
2 52195  53.0050 335.2050 0009032 307.0710  53.0697 15.44050702   241
2022-034B               
1 52196U 22034B   22093.80550278 -.00000427  00000+0  00000+0 0  9997
2 52196  53.0034 336.6518 0008387 296.8051 178.0407 15.43969724   196
2022-034C               
1 52197U          22093.78442936 -.00000431  00000+0  00000+0 0  9990
2 52197  53.0027 336.7504 0009950 284.8823  75.1046 15.44505037   196
2022-034D               
1 52198U 22034D   22093.95243465 -.00003617  11435-4  00000+0 0  9995
2 52198  53.0009 335.4034 0154563  57.7428  48.4079 16.01510620   221
2022-034E               
1 52199U 22034E   22094.06775154 -.00003438  10870-4  00000+0 0  9997
2 52199  53.0314 335.1501 0194866 248.6603 109.3824 15.87656424   235
